[
    {
        "Altitude(m)": 607897.6429400541,
        "Argument of Periapsis(deg)": 0.0,
        "Eccentricity": 0.0,
        "Inclination(deg)": 60.0,
        "Latitude(deg)": -14.293094108913879,
        "Longitude(deg)": -78.38124005055158,
        "Mean Anomaly(deg)": -16.363600000000016,
        "RAAN(deg)": 30.0,
        "Satellite Name": "Test1 153",
        "Satellite Number": 153,
        "Semi-Major Axis(m)": 6980739.136638005,
        "Time(s)": 0
    },
    {
        "Altitude(m)": 607750.8432351885,
        "Argument of Periapsis(deg)": 0.00010418945913296404,
        "Eccentricity": 0.0,
        "Inclination(deg)": 60.0,
        "Latitude(deg)": -13.758935419445299,
        "Longitude(deg)": -78.09417111850252,
        "Mean Anomaly(deg)": -15.743493854538176,
        "RAAN(deg)": 29.99957995086026,
        "Satellite Name": "Test1 153",
        "Satellite Number": 153,
        "Semi-Major Axis(m)": 6980739.136638005,
        "Time(s)": 10
    }
]